NORAD_CAT_ID,OBJECT_NAME,OBJECT_TYPE,EPOCH,MEAN_MOTION,ECCENTRICITY,INCLINATION,RA_OF_ASC_NODE,ARG_OF_PERICENTER,MEAN_ANOMALY,BSTAR,MEAN_MOTION_DOT,MEAN_MOTION_DDOT,TLE_LINE0,TLE_LINE1,TLE_LINE2,SEMIMAJOR_AXIS,PERIOD,APOGEE,PERIGEE,DECAYED
49169.0,STARLINK-3046,PAYLOAD,2023-09-11 13:30:03,14.98311618,0.0002983,70.0018,49.2214,268.4598,91.622,0.0003675,4.293e-05,0.0,0 STARLINK-3046,1 49169U 21082AR  23254.56254269  .00004293  00000-0  36750-3 0  9999,2 49169  70.0018  49.2214 0002983 268.4598  91.6220 14.98311618110142,6950.25,96.108,574.188,570.041,0.0
49169.0,STARLINK-3046,PAYLOAD,2023-09-11 16:42:19,14.98330063,0.0002995,70.0017,48.8852,269.988,90.0936,3.0614e-05,2.72e-06,0.0,0 STARLINK-3046,1 49169U 21082AR  23254.69605754  .00000272  00000-0  30614-4 0  9999,2 49169  70.0017  48.8852 0002995 269.9880  90.0936 14.98330063111375,6950.193,96.107,574.139,569.976,0.0
49169.0,STARLINK-3046,PAYLOAD,2023-09-12 13:32:03,14.98333658,0.0002969,70.0017,46.697,268.5216,91.5602,1.8931e-05,1.33e-06,0.0,0 STARLINK-3046,1 49169U 21082AR  23255.56393444  .00000133  00000-0  18931-4 0  9990,2 49169  70.0017  46.6970 0002969 268.5216  91.5602 14.98333658110290,6950.182,96.107,574.11,569.983,0.0
49169.0,STARLINK-3046,PAYLOAD,2023-09-12 18:20:27,14.98335259,0.0003083,70.0017,46.1918,270.5199,89.5606,5.2975e-05,5.39e-06,0.0,0 STARLINK-3046,1 49169U 21082AR  23255.76421210  .00000539  00000-0  52975-4 0  9991,2 49169  70.0017  46.1918 0003083 270.5199  89.5606 14.98335259111536,6950.177,96.107,574.184,569.899,0.0
49169.0,STARLINK-3046,PAYLOAD,2023-09-12 19:56:35,14.98337039,0.0002978,70.0019,46.024,269.2233,90.8585,5.9187e-05,6.13e-06,0.0,0 STARLINK-3046,1 49169U 21082AR  23255.83097082  .00000613  00000-0  59187-4 0  9990,2 49169  70.0019  46.0240 0002978 269.2233  90.8585 14.98337039110337,6950.171,96.107,574.106,569.966,0.0
49169.0,STARLINK-3046,PAYLOAD,2023-09-13 13:34:04,14.98345596,0.0003025,70.0015,44.1709,272.4792,87.6021,-0.00011192,-1.429e-05,0.0,0 STARLINK-3046,1 49169U 21082AR  23256.56532654 -.00001429  00000-0 -11192-3 0  9991,2 49169  70.0015  44.1709 0003025 272.4792  87.6021 14.98345596110440,6950.145,96.106,574.112,569.907,0.0
49169.0,STARLINK-3046,PAYLOAD,2023-09-13 18:22:28,14.98338141,0.0003086,70.0015,43.6663,272.253,87.8276,9.9144e-05,1.09e-05,0.0,0 STARLINK-3046,1 49169U 21082AR  23256.76560624  .00001090  00000-0  99144-4 0  9997,2 49169  70.0015  43.6663 0003086 272.2530  87.8276 14.98338141111687,6950.168,96.106,574.178,569.888,0.0
49169.0,STARLINK-3046,PAYLOAD,2023-09-13 19:58:36,14.98338667,0.0003081,70.0016,43.498,272.2946,87.786,0.00010442,1.153e-05,0.0,0 STARLINK-3046,1 49169U 21082AR  23256.83236546  .00001153  00000-0  10442-3 0  9991,2 49169  70.0016  43.4980 0003081 272.2946  87.7860 14.98338667110482,6950.166,96.106,574.172,569.89,0.0
49169.0,STARLINK-3046,PAYLOAD,2023-09-14 10:23:50,14.98323072,0.0002553,70.004,41.9842,254.8212,105.2665,-1.262e-05,-2.43e-06,0.0,0 STARLINK-3046,1 49169U 21082AR  23257.43321822 -.00000243  00000-0 -12620-4 0  9992,2 49169  70.0040  41.9842 0002553 254.8212 105.2665 14.98323072111781,6950.214,96.107,573.854,570.305,0.0
49169.0,STARLINK-3046,PAYLOAD,2023-09-14 13:36:06,14.98317478,0.0002684,70.0027,41.6482,264.914,95.1713,-9.4251e-05,-1.217e-05,0.0,0 STARLINK-3046,1 49169U 21082AR  23257.56674488 -.00001217  00000-0 -94251-4 0  9997,2 49169  70.0027  41.6482 0002684 264.9140  95.1713 14.98317478110592,6950.232,96.108,573.962,570.231,0.0
49169.0,STARLINK-3046,PAYLOAD,2023-09-14 20:00:38,14.98324307,0.0002585,70.0021,40.9733,266.7945,93.2919,-0.00017012,-2.122e-05,0.0,0 STARLINK-3046,1 49169U 21082AR  23257.83378358 -.00002122  00000-0 -17012-3 0  9999,2 49169  70.0021  40.9733 0002585 266.7945  93.2919 14.98324307110631,6950.21,96.107,573.872,570.279,0.0
49169.0,STARLINK-3046,PAYLOAD,2023-09-15 10:25:50,14.98330197,0.0003296,70.0012,39.4585,269.9083,90.1699,2.4557e-06,-6.4e-07,0.0,0 STARLINK-3046,1 49169U 21082AR  23258.43461625 -.00000064  00000-0  24557-5 0  9992,2 49169  70.0012  39.4585 0003296 269.9083  90.1699 14.98330197111936,6950.192,96.107,574.348,569.766,0.0
49169.0,STARLINK-3046,PAYLOAD,2023-09-15 13:38:06,14.98330872,0.0003294,70.0013,39.122,270.1572,89.921,1.7763e-05,1.19e-06,0.0,0 STARLINK-3046,1 49169U 21082AR  23258.56813553  .00000119  00000-0  17763-4 0  9997,2 49169  70.0013  39.1220 0003294 270.1572  89.9210 14.98330872110748,6950.19,96.107,574.345,569.766,0.0
49169.0,STARLINK-3046,PAYLOAD,2023-09-15 20:02:38,14.98337068,0.0003239,70.0014,38.4486,271.7289,88.3499,7.0347e-05,7.47e-06,0.0,0 STARLINK-3046,1 49169U 21082AR  23258.83517016  .00000747  00000-0  70347-4 0  9996,2 49169  70.0014  38.4486 0003239 271.7289  88.3499 14.98337068111990,6950.171,96.107,574.287,569.785,0.0
49169.0,STARLINK-3046,PAYLOAD,2023-09-16 10:27:51,14.98324761,0.0003144,70.0018,36.9341,267.0233,93.0567,0.000172,1.96e-05,0.0,0 STARLINK-3046,1 49169U 21082AR  23259.43601609  .00001960  00000-0  17200-3 0  9991,2 49169  70.0018  36.9341 0003144 267.0233  93.0567 14.98324761112085,6950.209,96.107,574.259,569.889,0.0
49169.0,STARLINK-3046,PAYLOAD,2023-09-16 13:40:07,14.98324677,0.0003157,70.0018,36.5975,266.8184,93.2613,0.00016613,1.89e-05,0.0,0 STARLINK-3046,1 49169U 21082AR  23259.56953699  .00001890  00000-0  16613-3 0  9993,2 49169  70.0018  36.5975 0003157 266.8184  93.2613 14.98324677110897,6950.209,96.107,574.269,569.88,0.0
49169.0,STARLINK-3046,PAYLOAD,2023-09-17 13:42:08,14.98334501,0.0003011,70.0024,34.0744,262.4558,97.6259,6.8946e-05,7.3e-06,0.0,0 STARLINK-3046,1 49169U 21082AR  23260.57093453  .00000730  00000-0  68946-4 0  9998,2 49169  70.0024  34.0744 0003011 262.4558  97.6259 14.98334501111046,6950.179,96.107,574.137,569.951,0.0
49169.0,STARLINK-3046,PAYLOAD,2023-09-18 10:31:53,14.98330003,0.0003105,70.0017,31.8836,269.7872,90.2931,4.6462e-05,4.61e-06,0.0,0 STARLINK-3046,1 49169U 21082AR  23261.43881620  .00000461  00000-0  46462-4 0  9995,2 49169  70.0017  31.8836 0003105 269.7872  90.2931 14.98330003112385,6950.193,96.107,574.216,569.9,0.0
49169.0,STARLINK-3046,PAYLOAD,2023-09-18 13:44:09,14.9832868,0.0003122,70.0016,31.5469,269.4333,90.6469,2.7925e-05,2.4e-06,0.0,0 STARLINK-3046,1 49169U 21082AR  23261.57233727  .00000240  00000-0  27925-4 0  9997,2 49169  70.0016  31.5469 0003122 269.4333  90.6469 14.98328680111197,6950.197,96.107,574.232,569.892,0.0
49169.0,STARLINK-3046,PAYLOAD,2023-09-18 18:32:33,14.98333892,0.0002927,70.0017,31.0421,266.6013,93.4811,6.8799e-05,7.28e-06,0.0,0 STARLINK-3046,1 49169U 21082AR  23261.77261233  .00000728  00000-0  68799-4 0  9997,2 49169  70.0017  31.0421 0002927 266.6013  93.4811 14.98333892111224,6950.181,96.107,574.08,570.012,0.0
49169.0,STARLINK-3046,PAYLOAD,2023-09-19 10:33:54,14.98336169,0.0003135,70.0016,29.3595,270.1587,89.9213,6.6086e-05,6.96e-06,0.0,0 STARLINK-3046,1 49169U 21082AR  23262.44020976  .00000696  00000-0  66086-4 0  9990,2 49169  70.0016  29.3595 0003135 270.1587  89.9213 14.98336169112534,6950.174,96.107,574.218,569.86,0.0
49169.0,STARLINK-3046,PAYLOAD,2023-09-19 18:34:33,14.98340836,0.0002792,70.0019,28.5178,267.3643,92.7197,0.00016428,1.868e-05,0.0,0 STARLINK-3046,1 49169U 21082AR  23262.77400342  .00001868  00000-0  16428-3 0  9991,2 49169  70.0019  28.5178 0002792 267.3643  92.7197 14.98340836112588,6950.159,96.106,573.965,570.084,0.0
49169.0,STARLINK-3046,PAYLOAD,2023-09-20 08:59:47,14.98325959,0.0003045,70.0017,27.0022,270.7629,89.3181,1.9868e-05,1.44e-06,0.0,0 STARLINK-3046,1 49169U 21082AR  23263.37485597  .00000144  00000-0  19868-4 0  9991,2 49169  70.0017  27.0022 0003045 270.7629  89.3181 14.98325959112676,6950.205,96.107,574.187,569.954,0.0
49169.0,STARLINK-3046,PAYLOAD,2023-09-20 13:48:12,14.98310597,0.0002709,70.001,26.4978,270.745,89.3399,0.00017352,1.977e-05,0.0,0 STARLINK-3046,1 49169U 21082AR  23263.57514494  .00001977  00000-0  17352-3 0  9992,2 49169  70.0010  26.4978 0002709 270.7450  89.3399 14.98310597111492,6950.253,96.108,574.001,570.235,0.0
49169.0,STARLINK-3046,PAYLOAD,2023-09-20 18:36:36,14.98320673,0.0003035,70.0015,25.9936,272.3163,87.7649,-6.6015e-05,-8.8e-06,0.0,0 STARLINK-3046,1 49169U 21082AR  23263.77542280 -.00000880  00000-0 -66015-4 0  9993,2 49169  70.0015  25.9936 0003035 272.3163  87.7649 14.98320673111527,6950.222,96.108,574.196,569.977,0.0
49169.0,STARLINK-3046,PAYLOAD,2023-09-21 10:37:56,14.98334668,0.0003241,70.001,24.3094,273.789,86.2898,3.2229e-05,2.92e-06,0.0,0 STARLINK-3046,1 49169U 21082AR  23264.44301301  .00000292  00000-0  32229-4 0  9990,2 49169  70.0010  24.3094 0003241 273.7890  86.2898 14.98334668112835,6950.178,96.107,574.296,569.791,0.0
49169.0,STARLINK-3046,PAYLOAD,2023-09-21 12:14:04,14.98334985,0.0003241,70.0009,24.1408,274.1941,85.8848,3.9206e-05,3.75e-06,0.0,0 STARLINK-3046,1 49169U 21082AR  23264.50977276  .00000375  00000-0  39206-4 0  9991,2 49169  70.0009  24.1408 0003241 274.1941  85.8848 14.98334985111631,6950.177,96.107,574.295,569.79,0.0
49169.0,STARLINK-3046,PAYLOAD,2023-09-21 17:02:25,14.98429559,0.0003414,70.0011,23.637,283.299,76.7789,-0.0016536,-0.00019819,0.0,0 STARLINK-3046,1 49169U 21082AR  23264.71001345 -.00019819  00000-0 -16536-2 0  9993,2 49169  70.0011  23.6370 0003414 283.2990  76.7789 14.98429559111661,6949.885,96.101,574.123,569.377,0.0
49169.0,STARLINK-3046,PAYLOAD,2023-09-22 01:03:08,14.98343961,0.000328,70.0008,22.7946,274.5935,85.485,-4.4042e-06,-1.46e-06,0.0,0 STARLINK-3046,1 49169U 21082AR  23265.04384554 -.00000146  00000-0 -44042-5 0  9995,2 49169  70.0008  22.7946 0003280 274.5935  85.4850 14.98343961112927,6950.15,96.106,574.294,569.735,0.0
49169.0,STARLINK-3046,PAYLOAD,2023-09-22 10:39:57,14.98326283,0.0003158,70.0014,21.7857,273.1196,86.9602,0.00026662,3.089e-05,0.0,0 STARLINK-3046,1 49169U 21082AR  23265.44441424  .00003089  00000-0  26662-3 0  9992,2 49169  70.0014  21.7857 0003158 273.1196  86.9602 14.98326283112987,6950.204,96.107,574.264,569.875,0.0
